{"type": "FeatureCollection", "features": [ {"type": "Feature", "properties": {"norad_id": 31195, "name": "FENGYUN 1C DEB", "group": "fengyun-1c-debris", "lat": 6.113429742351313, "lon": -152.61868919538696, "alt_km": 745.7986633598084, "timestamp": "2025-12-19T06:59:44.189582+00:00", "meta": {"OBJECT_NAME": "FENGYUN 1C DEB", "OBJECT_ID": "1999-025BJZ", "EPOCH": "2025-12-18T13:07:20.480448", "MEAN_MOTION": 14.07982413, "ECCENTRICITY": 0.01721725, "INCLINATION": 98.7785, "RA_OF_ASC_NODE": 25.7085, "ARG_OF_PERICENTER": 164.8261, "MEAN_ANOMALY": 195.8165, "EPHEMERIS_TYPE": 0, "CLASSIFICATION_TYPE": "U", "NORAD_CAT_ID": 31195, "ELEMENT_SET_NO": 999, "REV_AT_EPOCH": 96180, "BSTAR": 9.7795653e-05, "MEAN_MOTION_DOT": 1.48e-06, "MEAN_MOTION_DDOT": 0}, "tle": {"line1": "1 31195U 99025BJZ 25352.54676482  .00000148  00000+0  97796-4 0  9997", "line2": "2 31195  98.7785  25.7085 0172172 164.8261 195.8165 14.07982413961808"}}, "geometry": {"type": "Point", "coordinates": [-152.61868919538696, 6.113429742351313]}}, {"type": "Feature", "properties": {"norad_id": 31196, "name": "FENGYUN 1C DEB", "group": "fengyun-1c-debris", "lat": 9.502685598994745, "lon": -172.22755787305823, "alt_km": 769.9192192697919, "timestamp": "2025-12-19T06:59:44.189592+00:00", "meta": {"OBJECT_NAME": "FENGYUN 1C DEB", "OBJECT_ID": "1999-025BKA", "EPOCH": "2025-12-18T06:36:45.982080", "MEAN_MOTION": 14.25472778, "ECCENTRICITY": 0.00581332, "INCLINATION": 98.5263, "RA_OF_ASC_NODE": 5.3458, "ARG_OF_PERICENTER": 195.9048, "MEAN_ANOMALY": 164.0308, "EPHEMERIS_TYPE": 0, "CLASSIFICATION_TYPE": "U", "NORAD_CAT_ID": 31196, "ELEMENT_SET_NO": 999, "REV_AT_EPOCH": 63574, "BSTAR": 0.00042579818, "MEAN_MOTION_DOT": 9.81e-06, "MEAN_MOTION_DDOT": 0}, "tle": {"line1": "1 31196U 99025BKA 25352.27553220  .00000981  00000+0  42580-3 0  9997", "line2": "2 31196  98.5263   5.3458 0058133 195.9048 164.0308 14.25472778635740"}}, "geometry": {"type": "Point", "coordinates": [-172.22755787305823, 9.502685598994745]}}, {"type": "Feature", "properties": {"norad_id": 31198, "name": "FENGYUN 1C DEB", "group": "fengyun-1c-debris", "lat": 79.35205111792246, "lon": -29.750610011160955, "alt_km": 1050.3523637946455, "timestamp": "2025-12-19T06:59:44.189602+00:00", "meta": {"OBJECT_NAME": "FENGYUN 1C DEB", "OBJECT_ID": "1999-025BKC", "EPOCH": "2025-12-18T13:04:37.352064", "MEAN_MOTION": 13.75522626, "ECCENTRICITY": 0.02035745, "INCLINATION": 98.6127, "RA_OF_ASC_NODE": 95.858, "ARG_OF_PERICENTER": 335.9369, "MEAN_ANOMALY": 23.2373, "EPHEMERIS_TYPE": 0, "CLASSIFICATION_TYPE": "U", "NORAD_CAT_ID": 31198, "ELEMENT_SET_NO": 999, "REV_AT_EPOCH": 62833, "BSTAR": 8.5335381e-05, "MEAN_MOTION_DOT": 5.6e-07, "MEAN_MOTION_DDOT": 0}, "tle": {"line1": "1 31198U 99025BKC 25352.54487676  .00000056  00000+0  85335-4 0  9999", "line2": "2 31198  98.6127  95.8580 0203574 335.9369  23.2373 13.75522626628332"}}, "geometry": {"type": "Point", "coordinates": [-29.750610011160955, 79.35205111792246]}}, {"type": "Feature", "properties": {"norad_id": 31199, "name": "FENGYUN 1C DEB", "group": "fengyun-1c-debris", "lat": -26.780325741037455, "lon": -19.696264852149678, "alt_km": 866.3022388939098, "timestamp": "2025-12-19T06:59:44.189612+00:00", "meta": {"OBJECT_NAME": "FENGYUN 1C DEB", "OBJECT_ID": "1999-025BKD", "EPOCH": "2025-12-15T04:38:25.255104", "MEAN_MOTION": 14.0998934, "ECCENTRICITY": 0.0063456, "INCLINATION": 98.7153, "RA_OF_ASC_NODE": 331.894, "ARG_OF_PERICENTER": 252.6703, "MEAN_ANOMALY": 169.1973, "EPHEMERIS_TYPE": 0, "CLASSIFICATION_TYPE": "U", "NORAD_CAT_ID": 31199, "ELEMENT_SET_NO": 999, "REV_AT_EPOCH": 96194, "BSTAR": 0.00023583272, "MEAN_MOTION_DOT": 3.81e-06, "MEAN_MOTION_DDOT": 0}, "tle": {"line1": "1 31199U 99025BKD 25349.19334786  .00000381  00000+0  23583-3 0  9997", "line2": "2 31199  98.7153 331.8940 0063456 252.6703 169.1973 14.09989340961947"}}, "geometry": {"type": "Point", "coordinates": [-19.696264852149678, -26.780325741037455]}}, {"type": "Feature", "properties": {"norad_id": 31201, "name": "FENGYUN 1C DEB", "group": "fengyun-1c-debris", "lat": 58.07329689584402, "lon": -160.2880206912902, "alt_km": 762.1742807865267, "timestamp": "2025-12-19T06:59:44.189622+00:00", "meta": {"OBJECT_NAME": "FENGYUN 1C DEB", "OBJECT_ID": "1999-025BKF", "EPOCH": "2025-12-18T14:07:24.229632", "MEAN_MOTION": 14.35196016, "ECCENTRICITY": 0.01424341, "INCLINATION": 99.002, "RA_OF_ASC_NODE": 213.7177, "ARG_OF_PERICENTER": 334.2486, "MEAN_ANOMALY": 53.2336, "EPHEMERIS_TYPE": 0, "CLASSIFICATION_TYPE": "U", "NORAD_CAT_ID": 31201, "ELEMENT_SET_NO": 999, "REV_AT_EPOCH": 97335, "BSTAR": 0.00067138893, "MEAN_MOTION_DOT": 2.101e-05, "MEAN_MOTION_DDOT": 0}, "tle": {"line1": "1 31201U 99025BKF 25352.58847488  .00002101  00000+0  67139-3 0  9993", "line2": "2 31201  99.0020 213.7177 0142434 334.2486  53.2336 14.35196016973350"}}, "geometry": {"type": "Point", "coordinates": [-160.2880206912902, 58.07329689584402]}}, {"type": "Feature", "properties": {"norad_id": 31202, "name": "FENGYUN 1C DEB", "group": "fengyun-1c-debris", "lat": -77.60397125214779, "lon": 69.03289295380449, "alt_km": 651.0330432007404, "timestamp": "2025-12-19T06:59:44.189633+00:00", "meta": {"OBJECT_NAME": "FENGYUN 1C DEB", "OBJECT_ID": "1999-025BKG", "EPOCH": "2025-12-17T22:10:38.741664", "MEAN_MOTION": 14.84169511, "ECCENTRICITY": 0.0068693, "INCLINATION": 96.5729, "RA_OF_ASC_NODE": 36.264, "ARG_OF_PERICENTER": 159.8959, "MEAN_ANOMALY": 18.418, "EPHEMERIS_TYPE": 0, "CLASSIFICATION_TYPE": "U", "NORAD_CAT_ID": 31202, "ELEMENT_SET_NO": 999, "REV_AT_EPOCH": 99231, "BSTAR": 0.00074605173, "MEAN_MOTION_DOT": 6.464e-05, "MEAN_MOTION_DDOT": 0}, "tle": {"line1": "1 31202U 99025BKG 25351.92405951  .00006464  00000+0  74605-3 0  9998", "line2": "2 31202  96.5729  36.2640 0068693 159.8959  18.4180 14.84169511992313"}}, "geometry": {"type": "Point", "coordinates": [69.03289295380449, -77.60397125214779]}}, {"type": "Feature", "properties": {"norad_id": 31205, "name": "FENGYUN 1C DEB", "group": "fengyun-1c-debris", "lat": -61.695108779396044, "lon": -110.795012268773, "alt_km": 767.0390381022253, "timestamp": "2025-12-19T06:59:44.189643+00:00", "meta": {"OBJECT_NAME": "FENGYUN 1C DEB", "OBJECT_ID": "1999-025BKK", "EPOCH": "2025-12-17T01:35:12.760224", "MEAN_MOTION": 14.23961555, "ECCENTRICITY": 0.01620614, "INCLINATION": 99.229, "RA_OF_ASC_NODE": 84.4409, "ARG_OF_PERICENTER": 185.1174, "MEAN_ANOMALY": 174.8354, "EPHEMERIS_TYPE": 0, "CLASSIFICATION_TYPE": "U", "NORAD_CAT_ID": 31205, "ELEMENT_SET_NO": 999, "REV_AT_EPOCH": 97272, "BSTAR": 0.00014132273, "MEAN_MOTION_DOT": 3.21e-06, "MEAN_MOTION_DDOT": 0}, "tle": {"line1": "1 31205U 99025BKK 25351.06611991  .00000321  00000+0  14132-3 0  9994", "line2": "2 31205  99.2290  84.4409 0162061 185.1174 174.8354 14.23961555972726"}}, "geometry": {"type": "Point", "coordinates": [-110.795012268773, -61.695108779396044]}}, {"type": "Feature", "properties": {"norad_id": 31206, "name": "FENGYUN 1C DEB", "group": "fengyun-1c-debris", "lat": -66.46391419783883, "lon": -77.62078985880356, "alt_km": 728.6183976655311, "timestamp": "2025-12-19T06:59:44.189653+00:00", "meta": {"OBJECT_NAME": "FENGYUN 1C DEB", "OBJECT_ID": "1999-025BKL", "EPOCH": "2025-12-18T16:18:14.112864", "MEAN_MOTION": 14.40526189, "ECCENTRICITY": 0.00775263, "INCLINATION": 98.8441, "RA_OF_ASC_NODE": 260.8022, "ARG_OF_PERICENTER": 344.3962, "MEAN_ANOMALY": 15.4836, "EPHEMERIS_TYPE": 0, "CLASSIFICATION_TYPE": "U", "NORAD_CAT_ID": 31206, "ELEMENT_SET_NO": 999, "REV_AT_EPOCH": 97931, "BSTAR": 0.00054541761, "MEAN_MOTION_DOT": 1.75e-05, "MEAN_MOTION_DDOT": 0}, "tle": {"line1": "1 31206U 99025BKL 25352.67933001  .00001750  00000+0  54542-3 0  9998", "line2": "2 31206  98.8441 260.8022 0077526 344.3962  15.4836 14.40526189979312"}}, "geometry": {"type": "Point", "coordinates": [-77.62078985880356, -66.46391419783883]}}, {"type": "Feature", "properties": {"norad_id": 31208, "name": "FENGYUN 1C DEB", "group": "fengyun-1c-debris", "lat": -40.62289428287757, "lon": 145.78561250773623, "alt_km": 688.9640030156243, "timestamp": "2025-12-19T06:59:44.189663+00:00", "meta": {"OBJECT_NAME": "FENGYUN 1C DEB", "OBJECT_ID": "1999-025BKN", "EPOCH": "2025-12-13T08:25:55.088256", "MEAN_MOTION": 14.61862471, "ECCENTRICITY": 0.00160842, "INCLINATION": 99.2396, "RA_OF_ASC_NODE": 131.1249, "ARG_OF_PERICENTER": 265.8015, "MEAN_ANOMALY": 126.2818, "EPHEMERIS_TYPE": 0, "CLASSIFICATION_TYPE": "U", "NORAD_CAT_ID": 31208, "ELEMENT_SET_NO": 999, "REV_AT_EPOCH": 70488, "BSTAR": 0.0052061327, "MEAN_MOTION_DOT": 0.00026113, "MEAN_MOTION_DDOT": 0}, "tle": {"line1": "1 31208U 99025BKN 25347.35133204  .00026113  00000+0  52061-2 0  9999", "line2": "2 31208  99.2396 131.1249 0016084 265.8015 126.2818 14.61862471704886"}}, "geometry": {"type": "Point", "coordinates": [145.78561250773623, -40.62289428287757]}}, {"type": "Feature", "properties": {"norad_id": 31209, "name": "FENGYUN 1C DEB", "group": "fengyun-1c-debris", "lat": 79.94214731439479, "lon": 26.802109202127124, "alt_km": 747.6019532310802, "timestamp": "2025-12-19T06:59:44.189673+00:00", "meta": {"OBJECT_NAME": "FENGYUN 1C DEB", "OBJECT_ID": "1999-025BKP", "EPOCH": "2025-12-16T23:42:24.947136", "MEAN_MOTION": 14.43551542, "ECCENTRICITY": 0.0021922, "INCLINATION": 98.8828, "RA_OF_ASC_NODE": 86.2512, "ARG_OF_PERICENTER": 329.797, "MEAN_ANOMALY": 30.1954, "EPHEMERIS_TYPE": 0, "CLASSIFICATION_TYPE": "U", "NORAD_CAT_ID": 31209, "ELEMENT_SET_NO": 999, "REV_AT_EPOCH": 64869, "BSTAR": 0.0019952413, "MEAN_MOTION_DOT": 6.735e-05, "MEAN_MOTION_DDOT": 0}, "tle": {"line1": "1 31209U 99025BKP 25350.98778874  .00006735  00000+0  19952-2 0  9991", "line2": "2 31209  98.8828  86.2512 0021922 329.7970  30.1954 14.43551542648696"}}, "geometry": {"type": "Point", "coordinates": [26.802109202127124, 79.94214731439479]}}]}